DONGPO 01               
1 53453U 22098K   26141.71898110  .00060135  00000+0  54635-3 0  9990
2 53453  97.5557 271.3146 0000726 161.9791 198.1496 15.67804690210606
STARLINK-4400           
1 53468U 22099D   26141.26277410  .00002512  00000+0  17818-3 0  9998
2 53468  97.4640 261.3668 0001156 168.6976 191.4278 15.05638044206899
STARLINK-4621           
1 53676U 22105AE  26141.19908989  .00000070  00000+0  89254-5 0  9993
2 53676  97.4673  21.3130 0002267  74.4293 285.7184 15.05645772204149
SHERPA-LTC2             
1 53754U 22107BG  26141.72992227  .00005697  00000+0  29125-3 0  9998
2 53754  53.2345 332.3067 0397154 152.0439 210.2505 14.69274390198654
CENTISPACE-1 S3         
1 53757U 22108A   26141.66819446 -.00000006  00000+0  36796-4 0  9999
2 53757  53.5312 164.9147 0008202 275.1181  84.8858 14.61223645197650
CENTISPACE-1 S4         
1 53758U 22108B   26141.59640620  .00000033  00000+0  44162-4 0  9993
2 53758  53.5286 162.8547 0007789 260.4437  99.5658 14.61897319197670
BLUEWALKER-3            
1 53807U 22111AL  26141.34327796  .00003680  00000+0  10768-3 0  9996
2 53807  53.2273 159.9607 0007436  89.9111 270.2746 15.37896750206077
YUNHAI-1 03             
1 53877U 22115A   26141.71890122  .00000228  00000+0  99776-4 0  9998
2 53877  98.5534 140.2032 0005839 117.8488 242.3288 14.32698212191727
CENTISPACE-1 S5         
1 54020U 22126A   26141.71054546  .00000437  00000+0  12136-3 0  9999
2 54020  54.9995 318.9072 0013113  21.4618 338.6923 14.62959016193162
CENTISPACE-1 S6         
1 54021U 22126B   26141.75906734  .00000316  00000+0  99207-4 0  9990
2 54021  54.9998 320.4566 0014957  20.5784 339.5809 14.62247158193130
OTB-3-GAZELLE           
1 54023U 22127A   26141.42697037  .00000087  00000+0  39281-4 0  9991
2 54023  98.3940 133.5403 0011814 269.6123  90.3714 14.42663502190504
ASO-S                   
1 54029U 22129A   26141.72404006  .00000120  00000+0  40672-4 0  9998
2 54029  98.2751 147.1837 0014530 168.8817 191.2703 14.52046627191581
HJ-2E                   
1 54035U 22132A   26141.72565023  .00005041  00000+0  22319-3 0  9990
2 54035  97.3806 146.5886 0022659 101.5637 258.8145 15.21863342200399
COSMOS 2561             
1 54109U 22137A   26141.78024032  .00009214  00000+0  16005-3 0  9994
2 54109  96.9202 201.7784 0011828 119.1221 241.1218 15.50957132202253
GONETS-M 23             
1 54150U 22139A   26141.69878303  .00000022  00000+0  86081-4 0  9990
2 54150  82.5089   4.7580 0020569 280.5993  79.2770 12.42889636162359
GONETS-M 24             
1 54151U 22139B   26141.75239848  .00000013  00000+0  26124-4 0  9995
2 54151  82.5005   3.8026 0015893 291.8838  68.0551 12.42890199162360
GONETS-M 25             
1 54152U 22139C   26141.73875368  .00000003  00000+0 -49205-4 0  9992
2 54152  82.5071   4.4831 0019786 289.8561  70.0386 12.42889235162368
SKIF-D                  
1 54153U 22139D   26141.27580434  .00000027  00000+0  00000+0 0  9999
2 54153  89.9547  96.6756 0007376 210.6896 149.3035  5.00436582 62765
MATS                    
1 54227U 22147A   26141.45885257  .00001987  00000+0  14364-3 0  9999
2 54227  97.6833 143.1764 0010515 294.7022  65.3109 15.05169629193744
JILIN-1 GAOFEN 03D54    
1 54254U 22155D   26141.67222924  .00137334  00000+0  57815-3 0  9992
2 54254  97.6109 291.5456 0001092 177.8957 182.2318 15.85115213196083
EOS-6 (OCEANSAT-3)      
1 54361U 22158A   26141.74769950  .00000170  00000+0  58730-4 0  9992
2 54361  98.3522 240.2946 0002224  80.1119 280.0324 14.46981633184015
DONGPO 09               
1 54685U 22167D   26141.76551378  .00008065  00000+0  23493-3 0  9994
2 54685  97.6889 311.6094 0002221 182.1823 177.9410 15.35677955191398
DONGPO 08               
1 54686U 22167E   26141.76552183  .00006913  00000+0  21896-3 0  9995
2 54686  97.6851 308.9113 0006850 257.1056 102.9420 15.33060379191272
2022-167F               
1 54687U 22167F   26141.73383993  .00117777  00000+0  55285-3 0  9994
2 54687  97.6162 326.5830 0002985 160.6240 199.5142 15.82850655192630
DONGPO 10               
1 54689U 22167H   26141.72069220  .00007201  00000+0  22248-3 0  9992
2 54689  97.6933 310.7540 0004863 191.8791 168.2337 15.33846757191301
JILIN-1 GAOFEN 03D48    
1 54695U 22167P   26141.73137100  .00007644  00000+0  23054-3 0  9990
2 54695  97.6867 310.1347 0006164 199.3358 160.7651 15.34585538191338
STAR VIBE               
1 55009U 23001A   26141.69767962  .00009506  00000+0  22636-3 0  9992
2 55009  97.3179 206.0683 0005564 192.1314 167.9800 15.41806603188140
BRO-8                   
1 55011U 23001C   26141.74195617  .00020755  00000+0  40804-3 0  9999
2 55011  97.3223 206.5776 0005882 198.9463 161.1569 15.47291259188119
CONNECTA T1.2           
1 55012U 23001D   26141.76105759  .00026254  00000+0  49219-3 0  9999
2 55012  97.3283 212.0208 0006718 177.0238 183.1054 15.48612892188456
BIRKELAND               
1 55015U 23001G   26141.69759351  .00006094  00000+0  15704-3 0  9999
2 55015  97.3351 209.6084 0006725 185.3730 174.7444 15.39554548188278
