OBJECT_NAME,OBJECT_ID,EPOCH,MEAN_MOTION,ECCENTRICITY,INCLINATION,RA_OF_ASC_NODE,ARG_OF_PERICENTER,MEAN_ANOMALY,EPHEMERIS_TYPE,CLASSIFICATION_TYPE,NORAD_CAT_ID,ELEMENT_SET_NO,REV_AT_EPOCH,BSTAR,MEAN_MOTION_DOT,MEAN_MOTION_DDOT
DONGPO 01,2022-098K,2026-05-21T17:15:19.967040,15.67804690,.0000726,97.5557,271.3146,161.9791,198.1496,0,U,53453,999,21060,.54635E-3,.60135E-3,0
STARLINK-4400,2022-099D,2026-05-21T06:18:23.682240,15.05638044,.0001156,97.4640,261.3668,168.6976,191.4278,0,U,53468,999,20689,.17818E-3,.2512E-4,0
STARLINK-4621,2022-105AE,2026-05-21T04:46:41.366496,15.05645772,.00022679,97.4673,21.3130,74.4293,285.7184,0,U,53676,999,20414,.8925384E-5,.7E-6,0
SHERPA-LTC2,2022-107BG,2026-05-21T17:31:05.284128,14.69274390,.0397154,53.2345,332.3067,152.0439,210.2505,0,U,53754,999,19865,.29125E-3,.5697E-4,0
CENTISPACE-1 S3,2022-108A,2026-05-21T16:02:12.001344,14.61223645,.0008202,53.5312,164.9147,275.1181,84.8858,0,U,53757,999,19765,.36796E-4,-.6E-7,0
CENTISPACE-1 S4,2022-108B,2026-05-21T14:18:49.495680,14.61897319,.0007789,53.5286,162.8547,260.4437,99.5658,0,U,53758,999,19767,.44162E-4,.33E-6,0
BLUEWALKER-3,2022-111AL,2026-05-21T08:14:19.215744,15.37896750,.0007436,53.2273,159.9607,89.9111,270.2746,0,U,53807,999,20607,.10768E-3,.368E-4,0
YUNHAI-1 03,2022-115A,2026-05-21T17:15:13.065408,14.32698212,.0005839,98.5534,140.2032,117.8488,242.3288,0,U,53877,999,19172,.99776E-4,.228E-5,0
CENTISPACE-1 S5,2022-126A,2026-05-21T17:03:11.127744,14.62959016,.0013113,54.9995,318.9072,21.4618,338.6923,0,U,54020,999,19316,.12136E-3,.437E-5,0
CENTISPACE-1 S6,2022-126B,2026-05-21T18:13:03.418176,14.62247158,.0014957,54.9998,320.4566,20.5784,339.5809,0,U,54021,999,19313,.99207E-4,.316E-5,0
OTB-3-GAZELLE,2022-127A,2026-05-21T10:14:50.239968,14.42663502,.0011814,98.3940,133.5403,269.6123,90.3714,0,U,54023,999,19050,.39281E-4,.87E-6,0
ASO-S,2022-129A,2026-05-21T17:22:37.061184,14.52046627,.001453,98.2751,147.1837,168.8817,191.2703,0,U,54029,999,19158,.40672E-4,.12E-5,0
HJ-2E,2022-132A,2026-05-21T17:24:56.179872,15.21863342,.0022659,97.3806,146.5886,101.5637,258.8145,0,U,54035,999,20039,.22319E-3,.5041E-4,0
COSMOS 2561,2022-137A,2026-05-21T18:43:32.763648,15.50957132,.0011828,96.9202,201.7784,119.1221,241.1218,0,U,54109,999,20225,.16005E-3,.9214E-4,0
GONETS-M 23,2022-139A,2026-05-21T16:46:14.853792,12.42889636,.0020569,82.5089,4.7580,280.5993,79.2770,0,U,54150,999,16235,.86081E-4,.22E-6,0
GONETS-M 24,2022-139B,2026-05-21T18:03:27.228672,12.42890199,.0015893,82.5005,3.8026,291.8838,68.0551,0,U,54151,999,16236,.26124E-4,.13E-6,0
GONETS-M 25,2022-139C,2026-05-21T17:43:48.317952,12.42889235,.0019786,82.5071,4.4831,289.8561,70.0386,0,U,54152,999,16236,-.49205E-4,.3E-7,0
SKIF-D,2022-139D,2026-05-21T06:37:09.494976,5.00436582,.00073767,89.9547,96.6756,210.6896,149.3035,0,U,54153,999,6276,0,.27E-6,0
MATS,2022-147A,2026-05-21T11:00:44.862048,15.05169629,.0010515,97.6833,143.1764,294.7022,65.3109,0,U,54227,999,19374,.14364E-3,.1987E-4,0
JILIN-1 GAOFEN 03D54,2022-155D,2026-05-21T16:08:00.606336,15.85115213,.0001092,97.6109,291.5456,177.8957,182.2318,0,U,54254,999,19608,.57815E-3,.137334E-2,0
EOS-6 (OCEANSAT-3),2022-158A,2026-05-21T17:56:41.236800,14.46981633,.0002224,98.3522,240.2946,80.1119,280.0324,0,U,54361,999,18401,.5873E-4,.17E-5,0
DONGPO 09,2022-167D,2026-05-21T18:22:20.390592,15.35677955,.0002221,97.6889,311.6094,182.1823,177.9410,0,U,54685,999,19139,.23493E-3,.8065E-4,0
DONGPO 08,2022-167E,2026-05-21T18:22:21.086112,15.33060379,.000685,97.6851,308.9113,257.1056,102.9420,0,U,54686,999,19127,.21896E-3,.6913E-4,0
2022-167F,2022-167F,2026-05-21T17:36:43.769952,15.82850655,.0002985,97.6162,326.5830,160.6240,199.5142,0,U,54687,999,19263,.55285E-3,.117777E-2,0
DONGPO 10,2022-167H,2026-05-21T17:17:47.806080,15.33846757,.0004863,97.6933,310.7540,191.8791,168.2337,0,U,54689,999,19130,.22248E-3,.7201E-4,0
JILIN-1 GAOFEN 03D48,2022-167P,2026-05-21T17:33:10.454400,15.34585538,.0006164,97.6867,310.1347,199.3358,160.7651,0,U,54695,999,19133,.23054E-3,.7644E-4,0
STAR VIBE,2023-001A,2026-05-21T16:44:39.519168,15.41806603,.0005564,97.3179,206.0683,192.1314,167.9800,0,U,55009,999,18814,.22636E-3,.9506E-4,0
BRO-8,2023-001C,2026-05-21T17:48:25.013088,15.47291259,.0005882,97.3223,206.5776,198.9463,161.1569,0,U,55011,999,18811,.40804E-3,.20755E-3,0
CONNECTA T1.2,2023-001D,2026-05-21T18:15:55.375776,15.48612892,.0006718,97.3283,212.0208,177.0238,183.1054,0,U,55012,999,18845,.49219E-3,.26254E-3,0
BIRKELAND,2023-001G,2026-05-21T16:44:32.079264,15.39554548,.0006725,97.3351,209.6084,185.3730,174.7444,0,U,55015,999,18827,.15704E-3,.6094E-4,0
